[{"OBJECT_NAME":"FENGYUN 1C DEB","OBJECT_ID":"1999-025BUU","EPOCH":"2026-03-01T01:43:33.923424","MEAN_MOTION":14.42987797,"ECCENTRICITY":0.00685691,"INCLINATION":98.574,"RA_OF_ASC_NODE":167.8815,"ARG_OF_PERICENTER":80.158,"MEAN_ANOMALY":280.7343,"EPHEMERIS_TYPE":0,"CLASSIFICATION_TYPE":"U","NORAD_CAT_ID":31456,"ELEMENT_SET_NO":999,"REV_AT_EPOCH":98596,"BSTAR":0.00083927745,"MEAN_MOTION_DOT":2.845e-5,"MEAN_MOTION_DDOT":0},{"OBJECT_NAME":"FENGYUN 1C DEB","OBJECT_ID":"1999-025BUX","EPOCH":"2026-02-28T23:30:42.537600","MEAN_MOTION":14.45142748,"ECCENTRICITY":0.0091614,"INCLINATION":98.175,"RA_OF_ASC_NODE":330.2649,"ARG_OF_PERICENTER":255.9912,"MEAN_ANOMALY":103.1081,"EPHEMERIS_TYPE":0,"CLASSIFICATION_TYPE":"U","NORAD_CAT_ID":31459,"ELEMENT_SET_NO":999,"REV_AT_EPOCH":65687,"BSTAR":0.0013495,"MEAN_MOTION_DOT":4.929e-5,"MEAN_MOTION_DDOT":0},{"OBJECT_NAME":"FENGYUN 1C DEB","OBJECT_ID":"1999-025BVA","EPOCH":"2026-03-02T13:44:06.939456","MEAN_MOTION":14.13124585,"ECCENTRICITY":0.0031694,"INCLINATION":98.6857,"RA_OF_ASC_NODE":82.6259,"ARG_OF_PERICENTER":340.2196,"MEAN_ANOMALY":149.1394,"EPHEMERIS_TYPE":0,"CLASSIFICATION_TYPE":"U","NORAD_CAT_ID":31462,"ELEMENT_SET_NO":999,"REV_AT_EPOCH":96983,"BSTAR":0.00036856,"MEAN_MOTION_DOT":6.49e-6,"MEAN_MOTION_DDOT":0},{"OBJECT_NAME":"FENGYUN 1C DEB","OBJECT_ID":"1999-025BVB","EPOCH":"2026-03-01T18:34:56.491680","MEAN_MOTION":14.37281109,"ECCENTRICITY":0.02118991,"INCLINATION":99.0894,"RA_OF_ASC_NODE":51.9129,"ARG_OF_PERICENTER":167.7812,"MEAN_ANOMALY":192.8628,"EPHEMERIS_TYPE":0,"CLASSIFICATION_TYPE":"U","NORAD_CAT_ID":31463,"ELEMENT_SET_NO":999,"REV_AT_EPOCH":65855,"BSTAR":0.00026547834,"MEAN_MOTION_DOT":9.68e-6,"MEAN_MOTION_DDOT":0},{"OBJECT_NAME":"FENGYUN 1C DEB","OBJECT_ID":"1999-025BVC","EPOCH":"2026-02-28T09:44:13.083072","MEAN_MOTION":14.12574043,"ECCENTRICITY":0.00439469,"INCLINATION":98.7821,"RA_OF_ASC_NODE":109.7153,"ARG_OF_PERICENTER":24.0043,"MEAN_ANOMALY":43.0625,"EPHEMERIS_TYPE":0,"CLASSIFICATION_TYPE":"U","NORAD_CAT_ID":31464,"ELEMENT_SET_NO":999,"REV_AT_EPOCH":95776,"BSTAR":0.00026548488,"MEAN_MOTION_DOT":4.52e-6,"MEAN_MOTION_DDOT":0},{"OBJECT_NAME":"FENGYUN 1C DEB","OBJECT_ID":"1999-025BVE","EPOCH":"2026-02-26T00:54:40.151808","MEAN_MOTION":14.18603927,"ECCENTRICITY":0.03004212,"INCLINATION":99.0934,"RA_OF_ASC_NODE":353.9707,"ARG_OF_PERICENTER":94.3612,"MEAN_ANOMALY":269.1947,"EPHEMERIS_TYPE":0,"CLASSIFICATION_TYPE":"U","NORAD_CAT_ID":31466,"ELEMENT_SET_NO":999,"REV_AT_EPOCH":97396,"BSTAR":0.00013060985,"MEAN_MOTION_DOT":3.72e-6,"MEAN_MOTION_DDOT":0},{"OBJECT_NAME":"FENGYUN 1C DEB","OBJECT_ID":"1999-025BVG","EPOCH":"2026-02-27T19:21:07.090848","MEAN_MOTION":14.46992071,"ECCENTRICITY":0.01640847,"INCLINATION":98.1734,"RA_OF_ASC_NODE":57.2247,"ARG_OF_PERICENTER":291.7898,"MEAN_ANOMALY":66.5905,"EPHEMERIS_TYPE":0,"CLASSIFICATION_TYPE":"U","NORAD_CAT_ID":31468,"ELEMENT_SET_NO":999,"REV_AT_EPOCH":68486,"BSTAR":0.00048330066,"MEAN_MOTION_DOT":2.028e-5,"MEAN_MOTION_DDOT":0},{"OBJECT_NAME":"FENGYUN 1C DEB","OBJECT_ID":"1999-025BVK","EPOCH":"2026-03-02T10:04:18.770880","MEAN_MOTION":14.15870987,"ECCENTRICITY":0.01470156,"INCLINATION":97.9785,"RA_OF_ASC_NODE":301.7815,"ARG_OF_PERICENTER":124.063,"MEAN_ANOMALY":237.4602,"EPHEMERIS_TYPE":0,"CLASSIFICATION_TYPE":"U","NORAD_CAT_ID":31471,"ELEMENT_SET_NO":999,"REV_AT_EPOCH":65104,"BSTAR":0.0014854386,"MEAN_MOTION_DOT":3.211e-5,"MEAN_MOTION_DDOT":0},{"OBJECT_NAME":"FENGYUN 1C DEB","OBJECT_ID":"1999-025BVM","EPOCH":"2026-03-02T14:12:15.492672","MEAN_MOTION":14.30440178,"ECCENTRICITY":0.0066346,"INCLINATION":98.5362,"RA_OF_ASC_NODE":98.1842,"ARG_OF_PERICENTER":139.1198,"MEAN_ANOMALY":12.4448,"EPHEMERIS_TYPE":0,"CLASSIFICATION_TYPE":"U","NORAD_CAT_ID":31473,"ELEMENT_SET_NO":999,"REV_AT_EPOCH":70662,"BSTAR":0.0013776,"MEAN_MOTION_DOT":3.63e-5,"MEAN_MOTION_DDOT":0},{"OBJECT_NAME":"FENGYUN 1C DEB","OBJECT_ID":"1999-025BVN","EPOCH":"2026-03-02T02:36:43.784640","MEAN_MOTION":14.10991278,"ECCENTRICITY":0.00670833,"INCLINATION":99.1393,"RA_OF_ASC_NODE":113.3425,"ARG_OF_PERICENTER":344.607,"MEAN_ANOMALY":15.3059,"EPHEMERIS_TYPE":0,"CLASSIFICATION_TYPE":"U","NORAD_CAT_ID":31474,"ELEMENT_SET_NO":999,"REV_AT_EPOCH":96089,"BSTAR":0.0011462181,"MEAN_MOTION_DOT":2.057e-5,"MEAN_MOTION_DDOT":0},{"OBJECT_NAME":"FENGYUN 1C DEB","OBJECT_ID":"1999-025BVP","EPOCH":"2026-03-02T22:55:00.572736","MEAN_MOTION":14.38825045,"ECCENTRICITY":0.0208167,"INCLINATION":98.934,"RA_OF_ASC_NODE":318.9945,"ARG_OF_PERICENTER":230.4673,"MEAN_ANOMALY":127.7954,"EPHEMERIS_TYPE":0,"CLASSIFICATION_TYPE":"U","NORAD_CAT_ID":31475,"ELEMENT_SET_NO":999,"REV_AT_EPOCH":97232,"BSTAR":0.00071337,"MEAN_MOTION_DOT":2.769e-5,"MEAN_MOTION_DDOT":0},{"OBJECT_NAME":"FENGYUN 1C DEB","OBJECT_ID":"1999-025BVQ","EPOCH":"2026-03-01T22:23:43.842048","MEAN_MOTION":14.22664536,"ECCENTRICITY":0.004916,"INCLINATION":98.8887,"RA_OF_ASC_NODE":140.1437,"ARG_OF_PERICENTER":303.0041,"MEAN_ANOMALY":56.6417,"EPHEMERIS_TYPE":0,"CLASSIFICATION_TYPE":"U","NORAD_CAT_ID":31476,"ELEMENT_SET_NO":999,"REV_AT_EPOCH":96825,"BSTAR":0.0012638,"MEAN_MOTION_DOT":2.818e-5,"MEAN_MOTION_DDOT":0},{"OBJECT_NAME":"FENGYUN 1C DEB","OBJECT_ID":"1999-025BVR","EPOCH":"2026-03-02T22:30:00.106272","MEAN_MOTION":14.02994048,"ECCENTRICITY":0.0109751,"INCLINATION":98.8943,"RA_OF_ASC_NODE":54.7755,"ARG_OF_PERICENTER":164.391,"MEAN_ANOMALY":196.0685,"EPHEMERIS_TYPE":0,"CLASSIFICATION_TYPE":"U","NORAD_CAT_ID":31477,"ELEMENT_SET_NO":999,"REV_AT_EPOCH":96528,"BSTAR":-2.4741e-5,"MEAN_MOTION_DOT":-8.3e-7,"MEAN_MOTION_DDOT":0},{"OBJECT_NAME":"FENGYUN 1C DEB","OBJECT_ID":"1999-025BVU","EPOCH":"2026-03-02T06:57:41.420736","MEAN_MOTION":13.90849388,"ECCENTRICITY":0.03428058,"INCLINATION":98.3398,"RA_OF_ASC_NODE":269.4837,"ARG_OF_PERICENTER":0.0297,"MEAN_ANOMALY":0.083,"EPHEMERIS_TYPE":0,"CLASSIFICATION_TYPE":"U","NORAD_CAT_ID":31480,"ELEMENT_SET_NO":999,"REV_AT_EPOCH":94501,"BSTAR":0.0026360878,"MEAN_MOTION_DOT":5.279e-5,"MEAN_MOTION_DDOT":0},{"OBJECT_NAME":"FENGYUN 1C DEB","OBJECT_ID":"1999-025BVW","EPOCH":"2026-03-02T23:20:49.517376","MEAN_MOTION":14.36015902,"ECCENTRICITY":0.0090199,"INCLINATION":98.3846,"RA_OF_ASC_NODE":68.6213,"ARG_OF_PERICENTER":43.2753,"MEAN_ANOMALY":346.7539,"EPHEMERIS_TYPE":0,"CLASSIFICATION_TYPE":"U","NORAD_CAT_ID":31482,"ELEMENT_SET_NO":999,"REV_AT_EPOCH":98281,"BSTAR":0.0008823,"MEAN_MOTION_DOT":2.643e-5,"MEAN_MOTION_DDOT":0},{"OBJECT_NAME":"FENGYUN 1C DEB","OBJECT_ID":"1999-025BVX","EPOCH":"2026-03-02T21:18:19.089216","MEAN_MOTION":14.1706816,"ECCENTRICITY":0.0121046,"INCLINATION":102.5064,"RA_OF_ASC_NODE":49.2176,"ARG_OF_PERICENTER":21.363,"MEAN_ANOMALY":8.5086,"EPHEMERIS_TYPE":0,"CLASSIFICATION_TYPE":"U","NORAD_CAT_ID":31483,"ELEMENT_SET_NO":999,"REV_AT_EPOCH":95841,"BSTAR":0.0039966,"MEAN_MOTION_DOT":8.579e-5,"MEAN_MOTION_DDOT":0}]
