FENGYUN 1C DEB          
1 31456U 99025BUU 26060.07192041  .00002845  00000+0  83928-3 0  9993
2 31456  98.5740 167.8815 0068569  80.1580 280.7343 14.42987797985968
FENGYUN 1C DEB          
1 31459U 99025BUX 26059.97965900  .00004929  00000+0  13495-2 0  9991
2 31459  98.1750 330.2649 0091614 255.9912 103.1081 14.45142748656871
FENGYUN 1C DEB          
1 31462U 99025BVA 26061.57230254  .00000649  00000+0  36856-3 0  9993
2 31462  98.6857  82.6259 0031694 340.2196 149.1394 14.13124585969831
FENGYUN 1C DEB          
1 31463U 99025BVB 26060.77426495  .00000968  00000+0  26548-3 0  9990
2 31463  99.0894  51.9129 0211899 167.7812 192.8628 14.37281109658558
FENGYUN 1C DEB          
1 31464U 99025BVC 26059.40570698  .00000452  00000+0  26548-3 0  9992
2 31464  98.7821 109.7153 0043946  24.0043  43.0625 14.12574043957765
FENGYUN 1C DEB          
1 31466U 99025BVE 26057.03796472  .00000372  00000+0  13061-3 0  9998
2 31466  99.0934 353.9707 0300421  94.3612 269.1947 14.18603927973968
FENGYUN 1C DEB          
1 31468U 99025BVG 26058.80633207  .00002028  00000+0  48330-3 0  9999
2 31468  98.1734  57.2247 0164084 291.7898  66.5905 14.46992071684866
FENGYUN 1C DEB          
1 31471U 99025BVK 26061.41966170  .00003211  00000+0  14854-2 0  9990
2 31471  97.9785 301.7815 0147015 124.0630 237.4602 14.15870987651042
FENGYUN 1C DEB          
1 31473U 99025BVM 26061.59184598  .00003630  00000+0  13776-2 0  9994
2 31473  98.5362  98.1842 0066346 139.1198  12.4448 14.30440178706628
FENGYUN 1C DEB          
1 31474U 99025BVN 26061.10884010  .00002057  00000+0  11462-2 0  9990
2 31474  99.1393 113.3425 0067083 344.6070  15.3059 14.10991278960899
FENGYUN 1C DEB          
1 31475U 99025BVP 26061.95486774  .00002769  00000+0  71337-3 0  9997
2 31475  98.9340 318.9945 0208167 230.4673 127.7954 14.38825045972321
FENGYUN 1C DEB          
1 31476U 99025BVQ 26060.93314632  .00002818  00000+0  12638-2 0  9991
2 31476  98.8887 140.1437 0049160 303.0041  56.6417 14.22664536968250
FENGYUN 1C DEB          
1 31477U 99025BVR 26061.93750123 -.00000083  00000+0 -24741-4 0  9996
2 31477  98.8943  54.7755 0109751 164.3910 196.0685 14.02994048965281
FENGYUN 1C DEB          
1 31480U 99025BVU 26061.29006274  .00005279  00000+0  26361-2 0  9998
2 31480  98.3398 269.4837 0342805   0.0297   0.0830 13.90849388945010
FENGYUN 1C DEB          
1 31482U 99025BVW 26061.97279534  .00002643  00000+0  88230-3 0  9992
2 31482  98.3846  68.6213 0090199  43.2753 346.7539 14.36015902982812
FENGYUN 1C DEB          
1 31483U 99025BVX 26061.88772094  .00008579  00000+0  39966-2 0  9997
2 31483 102.5064  49.2176 0121046  21.3630   8.5086 14.17068160958415
